STARLINK-36644          
1 67821U 26033A   26077.58334491 -.02364124  00000+0 -42972-1 0  9995
2 67821  42.9998 217.9697 0001187 264.6023   1.7947 15.52531560  6094
STARLINK-36643          
1 67822U 26033B   26077.58334491  .00028084  00000+0  48317-3 0  9995
2 67822  42.9998 218.2626 0002194 269.8858 237.5589 15.50557232  6096
STARLINK-36646          
1 67823U 26033C   26077.58334491  .00037707  00000+0  64674-3 0  9992
2 67823  42.9995 218.0476 0001941 277.5559 316.7851 15.50522803  6096
STARLINK-36647          
1 67824U 26033D   26077.58334491  .00030429  00000+0  52312-3 0  9993
2 67824  43.0001 218.1632 0001606 272.1660 275.4917 15.50544223  6098
STARLINK-36648          
1 67825U 26033E   26077.58334491 -.01909498  00000+0 -26792-1 0  9999
2 67825  43.0001 217.5357 0001496 276.7566 164.5317 15.59242256  6090
STARLINK-35865          
1 67826U 26033F   26077.58334491 -.02176677  00000+0 -38551-1 0  9992
2 67826  43.0000 217.8869 0002164 276.7998  22.6483 15.52917345  6092
STARLINK-36289          
1 67827U 26033G   26077.58334491  .00026522  00000+0  45684-3 0  9999
2 67827  42.9997 218.1591 0001917 272.5235 276.4335 15.50549249  6092
STARLINK-36670          
1 67828U 26033H   26077.58334491  .00035101  00000+0  60239-3 0  9996
2 67828  42.9999 218.0220 0002079 286.1418 317.9011 15.50534479  6098
STARLINK-36144          
1 67829U 26033J   26077.58334491  .00028792  00000+0  49544-3 0  9991
2 67829  42.9997 218.0863 0002015 270.0417 308.0083 15.50541491  6093
STARLINK-36611          
1 67830U 26033K   26077.58334491 -.00623974  00000+0 -11341-1 0  9990
2 67830  43.0000 217.9324 0001254 289.5168 351.1334 15.50977374  6095
STARLINK-36661          
1 67831U 26033L   26077.58334491  .00026182  00000+0  45116-3 0  9996
2 67831  43.0000 218.2894 0001538 278.0575 217.6965 15.50544942  6099
STARLINK-36662          
1 67832U 26033M   26077.58334491 -.00098237  00000+0 -60651-3 0  9990
2 67832  42.9998 215.9446 0001334 270.6252  83.5674 15.76395150  6095
